{"type": "FeatureCollection", "features": [ {"type": "Feature", "properties": {"norad_id": 66879, "name": "STARLINK-35749", "group": "last-30-days", "lat": 53.12199162962765, "lon": 106.6179438026119, "alt_km": 366.31885437189703, "timestamp": "2025-12-24T14:43:27.721877+00:00", "meta": {"OBJECT_NAME": "STARLINK-35749", "OBJECT_ID": "2025-283B", "EPOCH": "2025-12-24T06:00:02.000160", "MEAN_MOTION": 15.66206779, "ECCENTRICITY": 0.00015194, "INCLINATION": 53.1596, "RA_OF_ASC_NODE": 16.3438, "ARG_OF_PERICENTER": 89.2125, "MEAN_ANOMALY": 112.4137, "EPHEMERIS_TYPE": 0, "CLASSIFICATION_TYPE": "U", "NORAD_CAT_ID": 66879, "ELEMENT_SET_NO": 999, "REV_AT_EPOCH": 427, "BSTAR": -0.021957187, "MEAN_MOTION_DOT": -0.02026421, "MEAN_MOTION_DDOT": 0}, "tle": {"line1": "1 66879U 25283B   25358.25002315 -.02026421  00000+0 -21957-1 0  9990", "line2": "2 66879  53.1596  16.3438 0001519  89.2125 112.4137 15.66206779  4276"}}, "geometry": {"type": "Point", "coordinates": [106.6179438026119, 53.12199162962765]}}, {"type": "Feature", "properties": {"norad_id": 66880, "name": "STARLINK-35844", "group": "last-30-days", "lat": 53.13418815105168, "lon": 103.42200859111952, "alt_km": 366.3972936055088, "timestamp": "2025-12-24T14:43:27.721888+00:00", "meta": {"OBJECT_NAME": "STARLINK-35844", "OBJECT_ID": "2025-283C", "EPOCH": "2025-12-24T06:00:02.000160", "MEAN_MOTION": 15.66205679, "ECCENTRICITY": 0.00014054, "INCLINATION": 53.1596, "RA_OF_ASC_NODE": 16.3484, "ARG_OF_PERICENTER": 89.817, "MEAN_ANOMALY": 109.8936, "EPHEMERIS_TYPE": 0, "CLASSIFICATION_TYPE": "U", "NORAD_CAT_ID": 66880, "ELEMENT_SET_NO": 999, "REV_AT_EPOCH": 427, "BSTAR": -0.021944736, "MEAN_MOTION_DOT": -0.02025241, "MEAN_MOTION_DDOT": 0}, "tle": {"line1": "1 66880U 25283C   25358.25002315 -.02025241  00000+0 -21945-1 0  9998", "line2": "2 66880  53.1596  16.3484 0001405  89.8170 109.8936 15.66205679  4274"}}, "geometry": {"type": "Point", "coordinates": [103.42200859111952, 53.13418815105168]}}, {"type": "Feature", "properties": {"norad_id": 66881, "name": "STARLINK-35860", "group": "last-30-days", "lat": 53.02418329328756, "lon": 109.8071490065633, "alt_km": 366.354528291301, "timestamp": "2025-12-24T14:43:27.721898+00:00", "meta": {"OBJECT_NAME": "STARLINK-35860", "OBJECT_ID": "2025-283D", "EPOCH": "2025-12-24T06:00:02.000160", "MEAN_MOTION": 15.66205053, "ECCENTRICITY": 0.00014893, "INCLINATION": 53.1597, "RA_OF_ASC_NODE": 16.3396, "ARG_OF_PERICENTER": 89.2873, "MEAN_ANOMALY": 114.2575, "EPHEMERIS_TYPE": 0, "CLASSIFICATION_TYPE": "U", "NORAD_CAT_ID": 66881, "ELEMENT_SET_NO": 999, "REV_AT_EPOCH": 427, "BSTAR": -0.021940101, "MEAN_MOTION_DOT": -0.02024889, "MEAN_MOTION_DDOT": 0}, "tle": {"line1": "1 66881U 25283D   25358.25002315 -.02024889  00000+0 -21940-1 0  9991", "line2": "2 66881  53.1597  16.3396 0001489  89.2873 114.2575 15.66205053  4279"}}, "geometry": {"type": "Point", "coordinates": [109.8071490065633, 53.02418329328756]}}, {"type": "Feature", "properties": {"norad_id": 66882, "name": "STARLINK-35912", "group": "last-30-days", "lat": 52.84099076848802, "lon": 112.97453737092613, "alt_km": 366.36027541737076, "timestamp": "2025-12-24T14:43:27.721910+00:00", "meta": {"OBJECT_NAME": "STARLINK-35912", "OBJECT_ID": "2025-283E", "EPOCH": "2025-12-24T06:00:02.000160", "MEAN_MOTION": 15.66197736, "ECCENTRICITY": 0.00015227, "INCLINATION": 53.1593, "RA_OF_ASC_NODE": 16.3364, "ARG_OF_PERICENTER": 84.0057, "MEAN_ANOMALY": 121.4567, "EPHEMERIS_TYPE": 0, "CLASSIFICATION_TYPE": "U", "NORAD_CAT_ID": 66882, "ELEMENT_SET_NO": 999, "REV_AT_EPOCH": 427, "BSTAR": -0.021811997, "MEAN_MOTION_DOT": -0.02014013, "MEAN_MOTION_DDOT": 0}, "tle": {"line1": "1 66882U 25283E   25358.25002315 -.02014013  00000+0 -21812-1 0  9998", "line2": "2 66882  53.1593  16.3364 0001522  84.0057 121.4567 15.66197736  4275"}}, "geometry": {"type": "Point", "coordinates": [112.97453737092613, 52.84099076848802]}}, {"type": "Feature", "properties": {"norad_id": 66883, "name": "STARLINK-35947", "group": "last-30-days", "lat": 52.57414526574405, "lon": 116.11504877630814, "alt_km": 366.4983509350295, "timestamp": "2025-12-24T14:43:27.721924+00:00", "meta": {"OBJECT_NAME": "STARLINK-35947", "OBJECT_ID": "2025-283F", "EPOCH": "2025-12-24T06:00:02.000160", "MEAN_MOTION": 15.66199868, "ECCENTRICITY": 0.00013979, "INCLINATION": 53.1595, "RA_OF_ASC_NODE": 16.3328, "ARG_OF_PERICENTER": 87.316, "MEAN_ANOMALY": 120.0701, "EPHEMERIS_TYPE": 0, "CLASSIFICATION_TYPE": "U", "NORAD_CAT_ID": 66883, "ELEMENT_SET_NO": 999, "REV_AT_EPOCH": 432, "BSTAR": -0.021929059, "MEAN_MOTION_DOT": -0.02023547, "MEAN_MOTION_DDOT": 0}, "tle": {"line1": "1 66883U 25283F   25358.25002315 -.02023547  00000+0 -21929-1 0  9990", "line2": "2 66883  53.1595  16.3328 0001397  87.3160 120.0701 15.66199868  4328"}}, "geometry": {"type": "Point", "coordinates": [116.11504877630814, 52.57414526574405]}}, {"type": "Feature", "properties": {"norad_id": 66884, "name": "STARLINK-36057", "group": "last-30-days", "lat": 51.798025497493875, "lon": 122.24033932915285, "alt_km": 366.58987201035325, "timestamp": "2025-12-24T14:43:27.721934+00:00", "meta": {"OBJECT_NAME": "STARLINK-36057", "OBJECT_ID": "2025-283G", "EPOCH": "2025-12-24T06:00:02.000160", "MEAN_MOTION": 15.66199186, "ECCENTRICITY": 0.00014085, "INCLINATION": 53.1597, "RA_OF_ASC_NODE": 16.3241, "ARG_OF_PERICENTER": 90.5058, "MEAN_ANOMALY": 120.7107, "EPHEMERIS_TYPE": 0, "CLASSIFICATION_TYPE": "U", "NORAD_CAT_ID": 66884, "ELEMENT_SET_NO": 999, "REV_AT_EPOCH": 427, "BSTAR": -0.021873369, "MEAN_MOTION_DOT": -0.02018997, "MEAN_MOTION_DDOT": 0}, "tle": {"line1": "1 66884U 25283G   25358.25002315 -.02018997  00000+0 -21873-1 0  9992", "line2": "2 66884  53.1597  16.3241 0001408  90.5058 120.7107 15.66199186  4274"}}, "geometry": {"type": "Point", "coordinates": [122.24033932915285, 51.798025497493875]}}, {"type": "Feature", "properties": {"norad_id": 66885, "name": "STARLINK-35954", "group": "last-30-days", "lat": 52.2261089556113, "lon": 119.20281070164398, "alt_km": 366.578696874627, "timestamp": "2025-12-24T14:43:27.721946+00:00", "meta": {"OBJECT_NAME": "STARLINK-35954", "OBJECT_ID": "2025-283H", "EPOCH": "2025-12-24T06:00:02.000160", "MEAN_MOTION": 15.66204836, "ECCENTRICITY": 0.00013369, "INCLINATION": 53.1597, "RA_OF_ASC_NODE": 16.328, "ARG_OF_PERICENTER": 87.933, "MEAN_ANOMALY": 121.3623, "EPHEMERIS_TYPE": 0, "CLASSIFICATION_TYPE": "U", "NORAD_CAT_ID": 66885, "ELEMENT_SET_NO": 999, "REV_AT_EPOCH": 427, "BSTAR": -0.021935326, "MEAN_MOTION_DOT": -0.02024364, "MEAN_MOTION_DDOT": 0}, "tle": {"line1": "1 66885U 25283H   25358.25002315 -.02024364  00000+0 -21935-1 0  9997", "line2": "2 66885  53.1597  16.3280 0001336  87.9330 121.3623 15.66204836  4270"}}, "geometry": {"type": "Point", "coordinates": [119.20281070164398, 52.2261089556113]}}, {"type": "Feature", "properties": {"norad_id": 66886, "name": "STARLINK-35900", "group": "last-30-days", "lat": 51.29265402167438, "lon": 125.21597373319206, "alt_km": 366.6393555816412, "timestamp": "2025-12-24T14:43:27.721957+00:00", "meta": {"OBJECT_NAME": "STARLINK-35900", "OBJECT_ID": "2025-283J", "EPOCH": "2025-12-24T06:00:02.000160", "MEAN_MOTION": 15.66199387, "ECCENTRICITY": 0.00014506, "INCLINATION": 53.1595, "RA_OF_ASC_NODE": 16.3196, "ARG_OF_PERICENTER": 90.7581, "MEAN_ANOMALY": 122.3762, "EPHEMERIS_TYPE": 0, "CLASSIFICATION_TYPE": "U", "NORAD_CAT_ID": 66886, "ELEMENT_SET_NO": 999, "REV_AT_EPOCH": 427, "BSTAR": -0.021892429, "MEAN_MOTION_DOT": -0.02020589, "MEAN_MOTION_DDOT": 0}, "tle": {"line1": "1 66886U 25283J   25358.25002315 -.02020589  00000+0 -21892-1 0  9995", "line2": "2 66886  53.1595  16.3196 0001450  90.7581 122.3762 15.66199387  4271"}}, "geometry": {"type": "Point", "coordinates": [125.21597373319206, 51.29265402167438]}}, {"type": "Feature", "properties": {"norad_id": 66887, "name": "STARLINK-35925", "group": "last-30-days", "lat": 50.71315173783706, "lon": 128.1254051049114, "alt_km": 366.7877045478399, "timestamp": "2025-12-24T14:43:27.721967+00:00", "meta": {"OBJECT_NAME": "STARLINK-35925", "OBJECT_ID": "2025-283K", "EPOCH": "2025-12-24T06:00:02.000160", "MEAN_MOTION": 15.66202499, "ECCENTRICITY": 0.00013805, "INCLINATION": 53.1596, "RA_OF_ASC_NODE": 16.316, "ARG_OF_PERICENTER": 89.854, "MEAN_ANOMALY": 125.1994, "EPHEMERIS_TYPE": 0, "CLASSIFICATION_TYPE": "U", "NORAD_CAT_ID": 66887, "ELEMENT_SET_NO": 999, "REV_AT_EPOCH": 427, "BSTAR": -0.021982673, "MEAN_MOTION_DOT": -0.02028061, "MEAN_MOTION_DDOT": 0}, "tle": {"line1": "1 66887U 25283K   25358.25002315 -.02028061  00000+0 -21983-1 0  9990", "line2": "2 66887  53.1596  16.3160 0001380  89.8540 125.1994 15.66202499  4277"}}, "geometry": {"type": "Point", "coordinates": [128.1254051049114, 50.71315173783706]}}, {"type": "Feature", "properties": {"norad_id": 66888, "name": "STARLINK-35919", "group": "last-30-days", "lat": 50.064337157949296, "lon": 130.95182171595607, "alt_km": 366.85769995144074, "timestamp": "2025-12-24T14:43:27.721977+00:00", "meta": {"OBJECT_NAME": "STARLINK-35919", "OBJECT_ID": "2025-283L", "EPOCH": "2025-12-24T06:00:02.000160", "MEAN_MOTION": 15.66196529, "ECCENTRICITY": 0.00013962, "INCLINATION": 53.1595, "RA_OF_ASC_NODE": 16.3115, "ARG_OF_PERICENTER": 90.606, "MEAN_ANOMALY": 126.3621, "EPHEMERIS_TYPE": 0, "CLASSIFICATION_TYPE": "U", "NORAD_CAT_ID": 66888, "ELEMENT_SET_NO": 999, "REV_AT_EPOCH": 427, "BSTAR": -0.021831453, "MEAN_MOTION_DOT": -0.02015401, "MEAN_MOTION_DDOT": 0}, "tle": {"line1": "1 66888U 25283L   25358.25002315 -.02015401  00000+0 -21831-1 0  9997", "line2": "2 66888  53.1595  16.3115 0001396  90.6060 126.3621 15.66196529  4277"}}, "geometry": {"type": "Point", "coordinates": [130.95182171595607, 50.064337157949296]}}]}